354P/LINEAR,e,5.2556,320.1290,132.9077,2.289359,0.2845333,0.12570161,152.2007,10/14.0/2021,2000,g 15.5,4.0
# From MPEC 2020-AA5
355P/LINEAR-NEAT,e,11.0419,51.4301,336.2616,3.471261,0.1523959,0.50741798,222.7370,10/14.0/2021,2000,g 15.5,2.0
# From MPEC 2021-F20
356P/WISE,e,9.6380,160.7974,225.9877,4.158907,0.1162078,0.35528528,162.2414,10/14.0/2021,2000,g 14.0,4.0
# From MPC114609
357P/Hill,e,6.3129,44.5642,1.3870,4.459770,0.1046491,0.43505982,129.1063,10/14.0/2021,2000,g 15.5,4.0
# From MPEC 2020-HN5
358P/PANSTARRS,e,11.0587,85.7044,299.7413,3.147187,0.1765307,0.23862912,226.1365,10/14.0/2021,2000,g 18.0,4.0
# From MPC110086
359P/LONEOS,e,10.2677,149.7559,200.1808,4.639626,0.0986233,0.32420469,149.3044,10/14.0/2021,2000,g 13.5,4.0
# From MPC108599
360P/WISE,e,24.1090,2.1905,354.1410,3.701707,0.1383888,0.49907996,209.7880,10/14.0/2021,2000,g 19.5,6.0
# From MPC114609
361P/Spacewatch,e,13.8958,203.2508,219.0297,4.937672,0.0898298,0.43827796,107.7611,10/14.0/2021,2000,g 12.0,4.0
# From MPEC 2017-V13
362P/,e,15.5562,192.5587,53.6978,3.969554,0.1246211,0.27923244,234.0616,10/14.0/2021,2000,g 12.9,2.0
# From MPC114609
363P/Lemmon,e,5.4101,146.8866,341.2301,3.555837,0.1469912,0.52345296,194.6797,10/14.0/2021,2000,g 17.5,4.0
# From MPEC 2021-F20
364P/PANSTARRS,e,12.1376,46.1790,212.0155,2.879445,0.2017162,0.72207059,243.6258,10/14.0/2021,2000,g 17.0,2.0
# From MPC111775
365P/PANSTARRS,e,9.8211,87.0561,66.5689,3.172704,0.1744053,0.57860230,233.3310,10/14.0/2021,2000,g 17.0,4.0
# From MPC114610
366P/Spacewatch,e,8.8583,70.7609,153.1231,3.496028,0.1507793,0.34813781,178.1759,10/14.0/2021,2000,g 15.0,4.0
# From MPC112395
367P/Catalina,e,8.4616,58.7218,172.8933,3.506167,0.1501257,0.28006726,181.8836,10/14.0/2021,2000,g 17.5,2.0
# From MPC114610
368P/NEAT,e,15.4810,257.9241,118.8103,5.527381,0.0758446,0.62655882,85.3353,10/14.0/2021,2000,g 14.0,4.0
# From MPC114610
369P/Hill,e,10.3167,47.2922,13.1662,4.383527,0.1073912,0.55465160,117.5584,10/14.0/2021,2000,g 15.0,4.0
# From MPEC 2021-F20
370P/NEAT,e,19.4093,55.1039,356.6788,6.434277,0.0603885,0.61478969,73.8079,10/14.0/2021,2000,g 13.0,4.0
# From MPC114610
371P/LINEAR-Skiff,e,17.3786,67.2864,308.4776,4.180863,0.1152936,0.47682495,127.3736,10/14.0/2021,2000,g 16.0,4.0
# From MPEC 2020-K19
372P/McNaught,e,9.5101,325.8158,27.3809,4.505292,0.1030670,0.15275369,112.0729,10/14.0/2021,2000,g 13.5,4.0
# From MPEC 2021-F20
373P/Rinner,e,13.7636,231.9492,221.0700,3.802904,0.1329018,0.39229180,122.1747,10/14.0/2021,2000,g 14.5,4.0
# From MPC114610
374P/Larson,e,10.7653,7.9127,51.4683,4.972898,0.0888771,0.46271447,89.5118,10/14.0/2021,2000,g 14.0,4.0
# From MPEC 2021-F20
375P/Hill,e,17.3614,359.9496,119.4331,5.554650,0.0752868,0.65854870,77.4054,10/14.0/2021,2000,g 16.0,4.0
# From MPEC 2021-S45
376P/LONEOS,e,1.1879,314.6836,284.6304,5.818393,0.0702263,0.51710363,52.5917,10/14.0/2021,2000,g 12.5,4.0
# From MPEC 2021-N06
377P/Scotti,e,9.0236,226.0620,355.0523,6.709212,0.0567149,0.25213103,26.0282,10/14.0/2021,2000,g  9.5,4.0
# From MPEC 2021-TD0
378P/McNaught,e,19.0483,94.3393,193.8428,6.369198,0.0613164,0.46976661,22.0758,10/14.0/2021,2000,g 12.0,4.0
# From MPC115889
379P/Spacewatch,e,12.4316,183.8216,30.8691,3.518526,0.1493355,0.34061106,120.1903,10/14.0/2021,2000,g 15.0,4.0
# From MPEC 2020-KB7
380P/PANSTARRS,e,8.2750,132.9474,87.7744,4.492161,0.1035193,0.33440268,89.6731,10/14.0/2021,2000,g 12.5,4.0
# From MPEC 2021-J28
381P/LINEAR-Spacewatch,e,28.3772,173.7637,173.1965,7.126962,0.0518021,0.68191555,38.7418,10/14.0/2021,2000,g 17.5,2.0
# From MPEC 2021-TD0
382P/Larson,e,8.0536,174.2720,172.6534,6.462960,0.0599870,0.31697032,351.3371,10/14.0/2021,2000,g  8.0,4.0
# From MPC118844
383P/Christensen,e,12.3220,207.8550,133.7059,3.545693,0.1476225,0.59962783,106.0832,10/14.0/2021,2000,g 18.0,4.0
# From MPEC 2021-S45
384P/Kowalski,e,7.2845,354.2303,37.6156,2.900816,0.1994913,0.61574516,146.2984,10/14.0/2021,2000,g 19.5,4.0
# From MPEC 2021-F20
385P/Hill,e,16.8313,357.0607,44.3203,4.288332,0.1109868,0.40162257,84.3545,10/14.0/2021,2000,g 13.0,4.0
# From MPEC 2021-L04
386P/PANSTARRS,e,15.2296,134.9477,353.1972,4.055745,0.1206696,0.41623363,50.7789,10/14.0/2021,2000,g 14.5,4.0
# From MPEC 2021-J28
387P/Boattini,e,8.9205,259.3045,162.7699,4.797880,0.0937843,0.73623509,72.0912,10/14.0/2021,2000,g 15.0,4.0
# From MPEC 2021-S45
388P/Gibbs,e,23.8733,37.0418,42.3418,5.243098,0.0820960,0.61811260,66.7768,10/14.0/2021,2000,g 13.0,4.0
# From MPEC 2021-J28
389P/Siding Spring,e,160.0728,218.8562,249.3316,5.628741,0.0738052,0.70429724,48.3264,10/14.0/2021,2000,g 16.0,4.0
# From MPEC 2021-S45
390P/Gibbs,e,18.5624,152.2748,232.3545,5.804881,0.0704716,0.70722720,40.2143,10/14.0/2021,2000,g 12.0,4.0
# From MPEC 2021-F20
391P/Kowalski,e,21.2753,124.7323,187.0926,4.680133,0.0973457,0.12054456,126.7632,10/14.0/2021,2000,g  8.0,4.0
# From MPEC 2021-J28
392P/LINEAR,e,4.9309,24.8818,71.9401,6.143970,0.0647188,0.68280407,36.3216,10/14.0/2021,2000,g 14.5,4.0
# From MPEC 2021-BE3
393P/Spacewatch-Hill,e,16.7895,36.4110,328.3586,4.787942,0.0940764,0.12065625,67.5809,10/14.0/2021,2000,g 11.0,4.0
# From MPEC 2020-KB7
394P/PANSTARRS,e,8.5294,98.1252,54.5168,4.331715,0.1093237,0.36771045,74.7565,10/14.0/2021,2000,g 16.0,2.4
# From MPEC 2021-TD0
395P/Catalina-NEAT,e,3.2765,223.7043,89.8174,6.552932,0.0587558,0.37968652,355.4450,10/14.0/2021,2000,g 10.0,4.0
# From MPEC 2020-KB7
396P/,e,5.4363,136.6644,8.5550,6.814933,0.0554002,0.41579089,43.0869,10/14.0/2021,2000,g 12.0,4.0
# From MPEC 2021-O56
397P/Lemmon,e,10.9288,8.1989,14.4527,3.828116,0.1315911,0.40515988,63.3673,10/14.0/2021,2000,g 12.0,4.0
# From MPEC 2021-L04
398P/Boattini,e,11.0153,127.4612,320.2212,3.127845,0.1781707,0.58265762,51.8937,10/14.0/2021,2000,g 15.5,4.0
# From MPEC 2021-F20
399P/PANSTARRS,e,13.3187,207.1429,214.2986,3.790159,0.1335728,0.44698214,19.2904,10/14.0/2021,2000,g 15.6,4.0
# From MPEC 2020-FB5
400P/PANSTARRS,e,10.9294,176.3929,238.7989,3.560355,0.1467115,0.40923592,36.0720,10/14.0/2021,2000,g 15.5,2.8
# From MPEC 2021-R75
401P/McNaught,e,12.8028,359.8814,309.3559,5.773619,0.0710447,0.58004140,48.0889,10/14.0/2021,2000,g 12.5,4.0
# From MPEC 2021-TD0
402P/LINEAR,e,30.2256,124.2437,317.0636,4.417704,0.1061474,0.11204030,359.0137,10/14.0/2021,2000,g  8.0,4.0
# From MPEC 2021-J28
403P/Catalina,e,12.3215,163.8124,277.6562,5.427435,0.0779493,0.50348359,30.6074,10/14.0/2021,2000,g 12.0,4.0
# From MPEC 2021-TD0
404P/Bressi,e,9.7182,261.3402,164.0639,4.809284,0.0934509,0.13655530,292.9138,10/14.0/2021,2000,g 10.0,4.0
# From MPEC 2021-L04
405P/Lemmon,e,9.3655,3.3148,112.2295,3.608232,0.1438011,0.68912299,42.2344,10/14.0/2021,2000,g 17.5,4.0
# From MPEC 2021-F20
406P/Gibbs,e,1.2135,11.4712,352.3903,3.574851,0.1458200,0.54204839,57.3415,10/14.0/2021,2000,g 17.0,4.0
# From MPEC 2021-F20
407P/PANSTARRS-Fuls,e,4.8879,80.7739,92.7749,3.462658,0.1529641,0.38432590,94.9323,10/14.0/2021,2000,g 14.0,4.0
# From MPEC 2021-TD0
408P/Novichonok-Gerke,e,19.3424,189.4383,226.1954,4.756359,0.0950150,0.27067163,326.3255,10/14.0/2021,2000,g 11.0,4.0
# From MPEC 2021-O56
409P/LONEOS-Hill,e,17.1188,143.6716,15.1267,6.045897,0.0662999,0.70988417,17.1622,10/14.0/2021,2000,g 14.0,4.0
# From MPEC 2021-F20
410P/NEAT-LINEAR,e,9.3938,139.9803,313.0901,6.633827,0.0576843,0.51053814,6.4870,10/14.0/2021,2000,g 12.5,4.0
# From MPEC 2021-J28
411P/Christensen,e,12.3778,77.6676,46.6609,5.817133,0.0702491,0.58080288,18.4487,10/14.0/2021,2000,g 13.5,4.0
# From MPEC 2021-F20
412P/WISE,e,8.9312,0.8489,155.9184,3.109453,0.1797538,0.47974366,56.2003,10/14.0/2021,2000,g 17.0,4.0
# From MPEC 2021-O56
413P/Larson,e,15.9785,39.0257,186.0445,3.710021,0.1379239,0.42321235,11.8313,10/14.0/2021,2000,g 14.0,4.0
# From MPEC 2021-BE3
414P/STEREO,e,23.3841,257.7893,210.7284,2.794363,0.2109988,0.81162778,55.2033,10/14.0/2021,2000,g 19.0,4.0
# From MPEC 2021-N06
415P/Tenagra,e,31.7921,160.2949,346.2320,4.115214,0.1180634,0.19473209,28.4521,10/14.0/2021,2000,g 12.0,4.0
# From MPEC 2021-L04
416P/Scotti,e,3.3614,355.8124,134.5002,4.012778,0.1226130,0.45431134,29.4975,10/14.0/2021,2000,g 15.5,4.0
# From MPEC 2021-S45
417P/NEOWISE,e,8.1300,111.3482,129.4757,3.349689,0.1607672,0.55457367,28.1008,10/14.0/2021,2000,g 16.5,4.0
# From MPEC 2021-L04
418P/LINEAR,e,5.7974,277.6576,307.1002,5.079814,0.0860860,0.66477255,359.6930,10/14.0/2021,2000,g 13.0,4.0
# From MPEC 2021-S45
419P/PANSTARRS,e,2.8029,40.3898,187.5014,3.521061,0.1491742,0.27770054,357.9920,10/14.0/2021,2000,g 12.5,4.0
# From MPEC 2021-S45
420P/Hill,e,14.5030,173.9583,157.1249,5.522711,0.0759409,0.49512086,343.2412,10/14.0/2021,2000,g 11.5,4.0
# From MPEC 2021-L04
421P/McNaught,e,10.0803,55.3487,259.8234,5.075633,0.0861924,0.67558022,22.5115,10/14.0/2021,2000,g 14.0,4.0
# From MPEC 2021-TD0
422P/Christensen,e,39.5324,36.0639,305.1469,6.319639,0.0620391,0.50864266,354.3015,10/14.0/2021,2000,g 11.0,4.0
# From MPEC 2021-N06
423P/Lemmon,e,8.3462,33.3124,80.3977,6.164120,0.0644017,0.12055535,1.5538,10/14.0/2021,2000,g 10.0,4.0
# From MPEC 2021-TD0
424P/LaSagra,e,8.6854,51.1791,312.4732,4.415378,0.1062312,0.69137414,358.1267,10/14.0/2021,2000,g 17.0,4.0
# From MPEC 2021-TD0
425P/Kowalski,e,16.4212,210.0879,200.7318,6.329102,0.0619000,0.54336657,1.4603,10/14.0/2021,2000,g 12.0,4.0
# From MPEC 2021-S45
428P/Gibbs,e,8.5151,299.3350,36.8138,3.484351,0.1515379,0.51956773,23.0837,10/14.0/2021,2000,g 15.0,4.0
# From MPEC 2021-TD0
429P/LINEAR-Hill,e,7.5220,322.0722,75.5334,3.551884,0.1472367,0.49146440,348.2015,10/14.0/2021,2000,g 15.5,4.0
# From MPEC 2021-Q69
430P/Scotti,e,4.4748,54.6748,94.5061,3.106752,0.1799883,0.49959040,351.1373,10/14.0/2021,2000,g 16.5,4.0
# From MPEC 2021-TD0
431P/Scotti,e,22.3894,202.8479,199.8442,3.474035,0.1522134,0.47792949,341.3785,10/14.0/2021,2000,g 14.0,4.0
# From MPEC 2021-TD0
432P/PANSTARRS,e,10.0673,239.1523,105.2894,3.037144,0.1862112,0.24239304,8.2742,10/14.0/2021,2000,g 17.0,4.0
# From MPC107687
1I/`Oumuamua,h,09/09.4886/2017,122.6778,24.5997,241.6845,1.199252,0.255240,2000,23.0,2.0
# From MPEC 2020-K19
